EYESAT-1 (AO-27)        
1 22825U 93061C   18013.87032846 -.00000001  00000-0  17293-4 0  9997
2 22825  98.8425 347.3601 0009484  78.0382 282.1862 14.30019163267512
CUTE-1 (CO-55)          
1 27844U 03031E   18014.50723085  .00000070  00000-0  51438-4 0  9998
2 27844  98.6884  25.4206 0010829  95.9995 264.2417 14.22088638754357
CUBESAT XI-IV (CO-57)   
1 27848U 03031J   18014.49433571  .00000051  00000-0  43256-4 0  9996
2 27848  98.6974  25.7517 0010715 105.0519 255.1844 14.21696153754223
CUBESAT XI 5            
1 28895U 05043F   18013.35171748  .00000133  00000-0  34346-4 0  9994
2 28895  97.8858 171.2858 0016565 194.6473 165.4252 14.63497306650995
CUTE-1.7+APD II (CO-65) 
1 32785U 08021C   18013.86188302  .00000246  00000-0  32356-4 0  9990
2 32785  97.5538  33.3615 0012969 183.7978 176.3143 14.88045135526226
COMPASS-1               
1 32787U 08021E   18013.83323696  .00000591  00000-0  62121-4 0  9992
2 32787  97.5405  43.4532 0013341 149.4507 210.7493 14.92883375526922
AAUSAT-II               
1 32788U 08021F   18014.07116518  .00000242  00000-0  27684-4 0  9991
2 32788  97.5378  46.8792 0012892 140.0233 220.1940 14.94186699527166
DELFI-C3 (DO-64)        
1 32789U 08021G   18013.75214766  .00001240  00000-0  89865-4 0  9998
2 32789  97.5344  72.3394 0014187 104.3738 255.9064 15.05674599528443
CANX-2                  
1 32790U 08021H   18013.81411577  .00000210  00000-0  28663-4 0  9991
2 32790  97.5532  31.5643 0013601 186.1774 173.9277 14.87755523526153
SEEDS II (CO-66)        
1 32791U 08021J   18013.59630910  .00000394  00000-0  45804-4 0  9990
2 32791  97.5469  38.0888 0013770 167.1154 193.0419 14.90443766526488
SWISSCUBE               
1 35932U 09051B   18013.96502378  .00000119  00000-0  37934-4 0  9991
2 35932  98.5217 161.6290 0006934 330.6985  29.3822 14.56110338440991
BEESAT                  
1 35933U 09051C   18013.93481302  .00000107  00000-0  35182-4 0  9992
2 35933  98.5257 163.0456 0005396 348.1372  11.9697 14.56219362441019
ITUPSAT 1               
1 35935U 09051E   18014.38398082  .00000083  00000-0  30132-4 0  9999
2 35935  98.5369 163.7592 0007571 337.3226  22.7635 14.55402577440953
TISAT 1                 
1 36799U 10035E   18013.93705926  .00000282  00000-0  34816-4 0  9995
2 36799  98.0844 146.3027 0012193   1.3496 358.7752 14.90666764406973
M-CUBED & EXP-1 PRIME   
1 37855U 11061F   18013.88900047  .00001180  00000-0  68555-4 0  9999
2 37855 101.7220 357.4779 0177896 178.6942 181.4769 15.03979854338450
HORYU 2                 
1 38340U 12025D   18014.07045559  .00000233  00000-0  42398-4 0  9995
2 38340  98.3746  30.4302 0011242 347.4433  12.6494 14.75483307304383
STRAND-1                
1 39090U 13009E   18013.80711427  .00000030  00000-0  25744-4 0  9996
2 39090  98.5337 222.0619 0009945  40.8846 319.3084 14.35006477255666
BRITE-AUSTRIA           
1 39091U 13009F   18013.81310901  .00000025  00000-0  23920-4 0  9998
2 39091  98.5303 221.3896 0011338  47.4056 312.8084 14.35056581255696
UNIBRITE                
1 39092U 13009G   18014.17953489  .00000015  00000-0  20756-4 0  9996
2 39092  98.5315 221.4243 0010123  40.8748 319.3195 14.34930973255738
AIST-2                  
1 39133U 13015D   18014.50041220  .00000150  00000-0  23244-4 0  9992
2 39133  64.8742 337.6554 0034475 246.7534 112.9954 15.04470494260084
SOMP                    
1 39134U 13015E   18013.93786406  .00001154  00000-0  64516-4 0  9993
2 39134  64.8632 265.7082 0029356 230.5341 129.3189 15.18712718261096
BEESAT-3                
1 39135U 13015F   18013.90889949  .00000810  00000-0  51370-4 0  9999
2 39135  64.8694 277.1887 0030711 254.8665 104.9062 15.16315482260868
BEESAT-2                
1 39136U 13015G   18013.89120065  .00000712  00000-0  47016-4 0  9998
2 39136  64.8696 279.6228 0030848 253.3003 106.4736 15.15798669261203
NEE-01 PEGASUS          
1 39151U 13018B   18014.47876202  .00000176  00000-0  30346-4 0  9996
2 39151  97.9790 109.6420 0018484  87.1685 273.1641 14.79840524254788
CUBEBUG-1 (CAPITAN BETO)
1 39153U 13018D   18014.19879263  .00000209  00000-0  34317-4 0  9996
2 39153  97.9820 110.3628 0018381  86.0787 274.2526 14.80324175254819
ESTCUBE 1               
1 39161U 13021C   18014.47447566  .00000148  00000-0  31550-4 0  9995
2 39161  98.0177 102.6277 0009207 181.4480 178.6714 14.72008828251836
POPACS 1                
1 39268U 13055D   18014.37622699  .00003036  00000-0  86964-4 0  9999
2 39268  81.0036 147.4666 0642145 319.3542  36.1334 14.32978939222417
POPACS 2                
1 39269U 13055E   18013.72086683  .00002284  00000-0  66117-4 0  9997
2 39269  81.0149 166.9923 0695242  10.2985 351.1616 14.21350554219974
POPACS 3                
1 39270U 13055F   18013.89355090  .00001691  00000-0  51816-4 0  9999
2 39270  81.0171 177.2301 0722046  40.9130 324.3976 14.14174609199842
ZACUBE-1 (TSHEPISOSAT)  
1 39417U 13066B   18013.92165153  .00000239  00000-0  36728-4 0  9999
2 39417  97.6054  50.6545 0057867 301.1000  58.4543 14.80859010223967
WNISAT-1                
1 39423U 13066H   18014.49564321  .00000127  00000-0  34341-4 0  9994
2 39423  97.7076 350.6428 0176405 137.1764 224.3325 14.52914307219918
TRITON-1                
1 39427U 13066M   18014.01316396  .00000235  00000-0  45449-4 0  9994
2 39427  97.6364  20.2168 0114967  33.9656 326.8842 14.67596774221960
GOMX 1                  
1 39430U 13066Q   18014.54955916  .00000269  00000-0  57182-4 0  9997
2 39430  97.6810   2.6481 0153071  95.5215 266.3467 14.59005122220756
BRITE-PL                
1 39431U 13066R   18013.90482455  .00000037  00000-0  18133-4 0  9996
2 39431  97.7365 338.2962 0202411 183.2432 176.7465 14.46901589218728
HUMSAT-D                
1 39433U 13066T   18014.16978537  .00000592  00000-0  63866-4 0  9997
2 39433  97.6267  75.7719 0029948 233.6047 126.2409 14.91717607225460
EAGLE 2                 
1 39436U 13066W   18014.27897901  .00072058  00000-0  10539-2 0  9990
2 39436  97.7115 138.0452 0005493  30.5581 329.5991 15.55356987229233
CUBEBUG-2 (LO-74)       
1 39440U 13066AA  18014.55359541  .00000278  00000-0  45968-4 0  9990
2 39440  97.6111  38.8455 0079923 335.3754  24.3649 14.75597308223262
NEE-02 KRYSAOR          
1 39441U 13066AB  18014.54728665  .00000185  00000-0  33565-4 0  9994
2 39441  97.6102  37.2419 0081466 339.8594  19.9407 14.74723695223139
FUNCUBE-1 (AO-73)       
1 39444U 13066AE  18013.66000404  .00000279  00000-0  41114-4 0  9996
2 39444  97.6068  51.7338 0057003 297.8428  61.7017 14.81621147222771
UWE-3                   
1 39446U 13066AG  18013.89167308  .00000241  00000-0  38946-4 0  9998
2 39446  97.6070  44.0758 0069304 319.8063  39.8034 14.78129550221731
BRITE-TORONTO           
1 40020U 14033L   18014.56215923  .00000075  00000-0  21249-4 0  9998
2 40020  97.8057 240.4819 0087973  15.1590 345.2220 14.66460476191077
DUCHIFAT-1              
1 40021U 14033M   18013.76050057  .00000423  00000-0  49518-4 0  9991
2 40021  97.9178 292.2019 0012470 333.6965  26.3617 14.90168372193957
FLOCK 1C-10             
1 40023U 14033P   18013.75113952  .00000168  00000-0  23874-4 0  9999
2 40023  97.9192 290.9951 0012828 340.3671  19.6996 14.89091328193837
NANOSATC-BR1            
1 40024U 14033Q   18013.72619334  .00000353  00000-0  43090-4 0  9990
2 40024  97.9123 290.7029 0011781 335.7592  24.3069 14.89451724193882
QB50P1                  
1 40025U 14033R   18014.29136005  .00000315  00000-0  39868-4 0  9999
2 40025  97.9093 289.9773 0012017 337.6875  22.3817 14.88616459193890
FLOCK 1C-7              
1 40026U 14033S   18013.73095612  .00001051  00000-0  11531-3 0  9990
2 40026  97.9226 291.9867 0011340 337.7830  22.2902 14.89836083193898
FLOCK 1C-1              
1 40027U 14033T   18013.97917821  .00000361  00000-0  44226-4 0  9993
2 40027  97.9218 291.5132 0012700 337.2647  22.8072 14.89150298193883
POPSAT-HIP-1            
1 40028U 14033U   18014.47642306  .00000486  00000-0  58395-4 0  9993
2 40028  97.9123 290.5003 0013741 335.3585  24.6969 14.88478811193902
FLOCK 1C-2              
1 40029U 14033V   18013.73602445  .00000896  00000-0  10065-3 0  9998
2 40029  97.9195 291.1092 0014079 334.4870  25.5664 14.89204484193837
FLOCK 1C-4              
1 40031U 14033X   18014.31225342  .00000518  00000-0  61007-4 0  9997
2 40031  97.9179 291.6244 0013838 328.7450  31.2940 14.89019992193905
QB50P2                  
1 40032U 14033Y   18014.33477886  .00000282  00000-0  36681-4 0  9990
2 40032  97.9056 288.9089 0011285 332.9435  27.1191 14.88166068193841
FLOCK 1C-11             
1 40033U 14033Z   18014.36557269 -.00000141  00000-0 -85244-5 0  9994
2 40033  97.9229 293.6106 0011598 324.5721  35.4719 14.90408070194045
ANTELSAT                
1 40034U 14033AA  18014.16405863  .00000236  00000-0  42891-4 0  9998
2 40034  97.8323 256.2213 0058473 335.3770  24.4649 14.73846075191994
FLOCK 1C-9              
1 40035U 14033AB  18013.98647267  .00000764  00000-0  86766-4 0  9999
2 40035  97.9246 291.8189 0011349 325.0583  34.9954 14.89226858193878
FLOCK 1C-6              
1 40036U 14033AC  18013.72375838  .00000944  00000-0  10539-3 0  9998
2 40036  97.9255 291.8264 0012046 328.2632  31.7963 14.89333531193858
PERSEUS-M2              
1 40037U 14033AD  18014.52365165  .00000127  00000-0  20685-4 0  9997
2 40037  97.9060 287.0940 0013908 338.7781  21.2856 14.86314098193703
FLOCK 1C-5              
1 40038U 14033AE  18013.73411077  .00001055  00000-0  11712-3 0  9995
2 40038  97.9241 291.5955 0014083 326.7977  33.2347 14.89305764193846
PERSEUS-M1              
1 40039U 14033AF  18014.30756041  .00000100  00000-0  17756-4 0  9998
2 40039  97.9062 286.3313 0013690 335.8412  24.2159 14.85936435193624
FLOCK 1C-8              
1 40040U 14033AG  18014.18728821  .00000536  00000-0  59638-4 0  9999
2 40040  97.9280 294.8995 0012128 308.2744  51.7389 14.91260892194079
